{"type":"FeatureCollection","features":[{"type":"Feature","properties":{"id":"dr-albuquerque","setor":"A"},"geometry":{"type":"Polygon","coordinates":[[[-54.615155,-20.505127],[-54.614914,-20.505831],[-54.60353,-20.51268],[-54.586638,-20.50711],[-54.586168,-20.505332],[-54.592866,-20.494523],[-54.59438,-20.493718],[-54.61265,-20.497281],[-54.615155,-20.505127]]]}},{"type":"Feature","properties":{"id":"moreninha-iii","setor":"A"},"geometry":{"type":"Polygon","coordinates":[[[-54.581227,-20.553857],[-54.57506,-20.56288],[-54.560285,-20.537043],[-54.572931,-20.537645],[-54.576175,-20.538537],[-54.581227,-20.553857]]]}},{"type":"Feature","properties":{"id":"alves-pereira","setor":"A"},"geometry":{"type":"Polygon","coordinates":[[[-54.613913,-20.528351],[-54.60928,-20.541434],[-54.600159,-20.544035],[-54.589886,-20.536164],[-54.592357,-20.528875],[-54.604262,-20.52243],[-54.613913,-20.528351]]]}},{"type":"Feature","properties":{"id":"jardim-moema","setor":"A"},"geometry":{"type":"Polygon","coordinates":[[[-54.592357,-20.528875],[-54.589886,-20.536164],[-54.576175,-20.538537],[-54.572931,-20.537645],[-54.58377,-20.511012],[-54.586248,-20.508524],[-54.592357,-20.528875]]]}},{"type":"Feature","properties":{"id":"itamaraca","setor":"A"},"geometry":{"type":"Polygon","coordinates":[[[-54.586638,-20.50711],[-54.586248,-20.508524],[-54.58377,-20.511012],[-54.562133,-20.522056],[-54.558984,-20.517015],[-54.556444,-20.515142],[-54.555135,-20.513418],[-54.553803,-20.512318],[-54.565337,-20.506142],[-54.584039,-20.504455],[-54.586168,-20.505332],[-54.586638,-20.50711]]]}},{"type":"Feature","properties":{"id":"cidade-morena","setor":"A"},"geometry":{"type":"Polygon","coordinates":[[[-54.600159,-20.544035],[-54.597392,-20.561651],[-54.581227,-20.553857],[-54.576175,-20.538537],[-54.589886,-20.536164],[-54.600159,-20.544035]]]}},{"type":"Feature","properties":{"id":"moreninha-iv","setor":"A"},"geometry":{"type":"Polygon","coordinates":[[[-54.57506,-20.56288],[-54.572103,-20.577893],[-54.561569,-20.570728],[-54.55577,-20.562321],[-54.554833,-20.557972],[-54.552844,-20.553299],[-54.55877,-20.539262],[-54.559832,-20.536959],[-54.560285,-20.537043],[-54.57506,-20.56288]]]}},{"type":"Feature","properties":{"id":"santa-felicidade","setor":"A"},"geometry":{"type":"Polygon","coordinates":[[[-54.599168,-20.568881],[-54.597227,-20.570416],[-54.595521,-20.572144],[-54.593885,-20.574867],[-54.592419,-20.579906],[-54.591199,-20.581726],[-54.588606,-20.58321],[-54.584679,-20.583418],[-54.583829,-20.583741],[-54.582944,-20.584714],[-54.582054,-20.587671],[-54.580347,-20.586858],[-54.578795,-20.58562],[-54.577811,-20.584297],[-54.5765,-20.581522],[-54.575101,-20.579932],[-54.572103,-20.577893],[-54.57506,-20.56288],[-54.581227,-20.553857],[-54.597392,-20.561651],[-54.599168,-20.568881]]]}},{"type":"Feature","properties":{"id":"campina-verde","setor":"A"},"geometry":{"type":"Polygon","coordinates":[[[-54.58377,-20.511012],[-54.572931,-20.537645],[-54.560285,-20.537043],[-54.559832,-20.536959],[-54.564293,-20.527284],[-54.564401,-20.526473],[-54.562629,-20.522851],[-54.562133,-20.522056],[-54.58377,-20.511012]]]}},{"type":"Feature","properties":{"id":"universitario","setor":"A"},"geometry":{"type":"Polygon","coordinates":[[[-54.604262,-20.52243],[-54.592357,-20.528875],[-54.586248,-20.508524],[-54.586638,-20.50711],[-54.60353,-20.51268],[-54.604262,-20.52243]]]}},{"type":"Feature","properties":{"id":"campo-belo","setor":"B"},"geometry":{"type":"Polygon","coordinates":[[[-54.605944,-20.399811],[-54.589232,-20.409138],[-54.57983,-20.406666],[-54.577842,-20.398957],[-54.596956,-20.380274],[-54.60081,-20.382307],[-54.602117,-20.38278],[-54.605944,-20.399811]]]}},{"type":"Feature","properties":{"id":"imperial","setor":"B"},"geometry":{"type":"Polygon","coordinates":[[[-54.600278,-20.421931],[-54.600057,-20.425233],[-54.59288,-20.430566],[-54.583758,-20.424174],[-54.583866,-20.423718],[-54.587318,-20.420664],[-54.600278,-20.421931]]]}},{"type":"Feature","properties":{"id":"atlantico-sul","setor":"B"},"geometry":{"type":"Polygon","coordinates":[[[-54.610053,-20.405151],[-54.610008,-20.410749],[-54.600278,-20.421931],[-54.587318,-20.420664],[-54.589232,-20.409138],[-54.605944,-20.399811],[-54.610053,-20.405151]]]}},{"type":"Feature","properties":{"id":"isabel-garden","setor":"B"},"geometry":{"type":"Polygon","coordinates":[[[-54.589232,-20.409138],[-54.587318,-20.420664],[-54.583866,-20.423718],[-54.575251,-20.414847],[-54.575541,-20.41138],[-54.57983,-20.406666],[-54.589232,-20.409138]]]}},{"type":"Feature","properties":{"id":"nova-lima-iii","setor":"B"},"geometry":{"type":"Polygon","coordinates":[[[-54.57983,-20.406666],[-54.575541,-20.41138],[-54.559653,-20.404209],[-54.573314,-20.397773],[-54.577842,-20.398957],[-54.57983,-20.406666]]]}},{"type":"Feature","properties":{"id":"santa-carmelia","setor":"C-1"},"geometry":{"type":"Polygon","coordinates":[[[-54.663509,-20.429738],[-54.661482,-20.439102],[-54.659404,-20.43996],[-54.644976,-20.43714],[-54.646251,-20.421667],[-54.652207,-20.417352],[-54.663509,-20.429738]]]}},{"type":"Feature","properties":{"id":"santa-luzia","setor":"C-1"},"geometry":{"type":"Polygon","coordinates":[[[-54.653802,-20.411459],[-54.652207,-20.417352],[-54.646251,-20.421667],[-54.634562,-20.420271],[-54.630249,-20.404278],[-54.634466,-20.401051],[-54.653802,-20.411459]]]}},{"type":"Feature","properties":{"id":"santo-amaro","setor":"C-1"},"geometry":{"type":"Polygon","coordinates":[[[-54.659404,-20.43996],[-54.649032,-20.465408],[-54.645663,-20.466847],[-54.638678,-20.466304],[-54.620399,-20.456793],[-54.620192,-20.455062],[-54.621098,-20.453036],[-54.644976,-20.43714],[-54.659404,-20.43996]]]}},{"type":"Feature","properties":{"id":"portal-da-lagoa","setor":"C-1"},"geometry":{"type":"Polygon","coordinates":[[[-54.634466,-20.401051],[-54.630249,-20.404278],[-54.610053,-20.405151],[-54.605944,-20.399811],[-54.602117,-20.38278],[-54.602456,-20.382903],[-54.60306,-20.38489],[-54.604206,-20.385997],[-54.606149,-20.386459],[-54.60813,-20.38598],[-54.612714,-20.387416],[-54.613583,-20.389204],[-54.614782,-20.389932],[-54.618411,-20.389567],[-54.621338,-20.387175],[-54.623238,-20.386437],[-54.626404,-20.386437],[-54.628304,-20.387175],[-54.630542,-20.389272],[-54.631329,-20.391054],[-54.631517,-20.392683],[-54.631248,-20.394302],[-54.63041,-20.396314],[-54.630563,-20.397527],[-54.633251,-20.400397],[-54.634466,-20.401051]]]}},{"type":"Feature","properties":{"id":"jose-abrao","setor":"C-1"},"geometry":{"type":"Polygon","coordinates":[[[-54.671707,-20.419163],[-54.671519,-20.420792],[-54.670888,-20.42232],[-54.668547,-20.425099],[-54.668487,-20.426388],[-54.668866,-20.426983],[-54.663509,-20.429738],[-54.652207,-20.417352],[-54.653802,-20.411459],[-54.65548,-20.412362],[-54.659906,-20.412152],[-54.661774,-20.413389],[-54.665166,-20.413033],[-54.666894,-20.413285],[-54.668493,-20.413947],[-54.670732,-20.416044],[-54.671438,-20.417543],[-54.671707,-20.419163]]]}},{"type":"Feature","properties":{"id":"ze-pereira","setor":"C-1"},"geometry":{"type":"Polygon","coordinates":[[[-54.682476,-20.435114],[-54.680685,-20.438004],[-54.669745,-20.444614],[-54.661482,-20.439102],[-54.663509,-20.429738],[-54.668866,-20.426983],[-54.669192,-20.427496],[-54.670682,-20.428329],[-54.674449,-20.428483],[-54.67635,-20.429221],[-54.679943,-20.432636],[-54.68093,-20.434254],[-54.682476,-20.435114]]]}},{"type":"Feature","properties":{"id":"vila-nasser","setor":"C-1"},"geometry":{"type":"Polygon","coordinates":[[[-54.646251,-20.421667],[-54.644976,-20.43714],[-54.621098,-20.453036],[-54.622274,-20.432292],[-54.634562,-20.420271],[-54.646251,-20.421667]]]}},{"type":"Feature","properties":{"id":"vila-marly","setor":"C-1"},"geometry":{"type":"Polygon","coordinates":[[[-54.634562,-20.420271],[-54.622274,-20.432292],[-54.610008,-20.410749],[-54.610053,-20.405151],[-54.630249,-20.404278],[-54.634562,-20.420271]]]}},{"type":"Feature","properties":{"id":"serradinho","setor":"C-2"},"geometry":{"type":"Polygon","coordinates":[[[-54.695135,-20.464533],[-54.690409,-20.477012],[-54.682401,-20.475979],[-54.668518,-20.46428],[-54.671809,-20.452472],[-54.686234,-20.45109],[-54.69157,-20.453573],[-54.695135,-20.464533]]]}},{"type":"Feature","properties":{"id":"ima","setor":"C-2"},"geometry":{"type":"Polygon","coordinates":[[[-54.671809,-20.452472],[-54.668518,-20.46428],[-54.649032,-20.465408],[-54.659404,-20.43996],[-54.661482,-20.439102],[-54.669745,-20.444614],[-54.671809,-20.452472]]]}},{"type":"Feature","properties":{"id":"popular","setor":"C-2"},"geometry":{"type":"Polygon","coordinates":[[[-54.709166,-20.44986],[-54.6997,-20.462286],[-54.695135,-20.464533],[-54.69157,-20.453573],[-54.696153,-20.443156],[-54.697448,-20.443931],[-54.698745,-20.444269],[-54.702098,-20.443681],[-54.703826,-20.443933],[-54.705426,-20.444595],[-54.707665,-20.446692],[-54.708796,-20.449487],[-54.709166,-20.44986]]]}},{"type":"Feature","properties":{"id":"inapolis","setor":"C-2"},"geometry":{"type":"Polygon","coordinates":[[[-54.762247,-20.474238],[-54.761591,-20.481683],[-54.75568,-20.494024],[-54.735064,-20.517152],[-54.733805,-20.518028],[-54.719209,-20.497767],[-54.729809,-20.466162],[-54.743441,-20.472697],[-54.762247,-20.474238]]]}},{"type":"Feature","properties":{"id":"aeroporto-ii","setor":"C-2"},"geometry":{"type":"Polygon","coordinates":[[[-54.696153,-20.443156],[-54.69157,-20.453573],[-54.686234,-20.45109],[-54.680685,-20.438004],[-54.682476,-20.435114],[-54.686063,-20.43711],[-54.688811,-20.437384],[-54.690712,-20.438122],[-54.692074,-20.439149],[-54.693923,-20.441822],[-54.696153,-20.443156]]]}},{"type":"Feature","properties":{"id":"aeroporto-i","setor":"C-2"},"geometry":{"type":"Polygon","coordinates":[[[-54.686234,-20.45109],[-54.671809,-20.452472],[-54.669745,-20.444614],[-54.680685,-20.438004],[-54.686234,-20.45109]]]}},{"type":"Feature","properties":{"id":"carioca","setor":"C-2"},"geometry":{"type":"Polygon","coordinates":[[[-54.729809,-20.466162],[-54.719209,-20.497767],[-54.701157,-20.491209],[-54.690409,-20.477012],[-54.695135,-20.464533],[-54.6997,-20.462286],[-54.72237,-20.462596],[-54.729809,-20.466162]]]}},{"type":"Feature","properties":{"id":"santa-monica","setor":"C-2"},"geometry":{"type":"Polygon","coordinates":[[[-54.72237,-20.462596],[-54.6997,-20.462286],[-54.709166,-20.44986],[-54.709463,-20.45016],[-54.714206,-20.451342],[-54.715618,-20.452309],[-54.716714,-20.453586],[-54.717421,-20.455085],[-54.71769,-20.456704],[-54.717445,-20.459182],[-54.71834,-20.460665],[-54.72237,-20.462596]]]}},{"type":"Feature","properties":{"id":"aero-rancho-iv","setor":"D"},"geometry":{"type":"Polygon","coordinates":[[[-54.655397,-20.508019],[-54.652779,-20.516989],[-54.649056,-20.517576],[-54.64322,-20.510719],[-54.653376,-20.507481],[-54.655397,-20.508019]]]}},{"type":"Feature","properties":{"id":"guanandy-ii","setor":"D"},"geometry":{"type":"Polygon","coordinates":[[[-54.653376,-20.507481],[-54.64322,-20.510719],[-54.643122,-20.510723],[-54.637058,-20.509716],[-54.636795,-20.50947],[-54.640655,-20.500502],[-54.653376,-20.507481]]]}},{"type":"Feature","properties":{"id":"jardim-das-hortencias","setor":"D"},"geometry":{"type":"Polygon","coordinates":[[[-54.645264,-20.518653],[-54.643339,-20.519421],[-54.640997,-20.51826],[-54.637058,-20.509716],[-54.643122,-20.510723],[-54.645264,-20.518653]]]}},{"type":"Feature","properties":{"id":"aero-rancho-i","setor":"D"},"geometry":{"type":"Polygon","coordinates":[[[-54.661381,-20.527886],[-54.657275,-20.531664],[-54.647216,-20.531263],[-54.653806,-20.519117],[-54.660303,-20.524199],[-54.661381,-20.527886]]]}},{"type":"Feature","properties":{"id":"centenario","setor":"D"},"geometry":{"type":"Polygon","coordinates":[[[-54.657527,-20.544368],[-54.65418,-20.545281],[-54.648251,-20.54206],[-54.647072,-20.53133],[-54.647216,-20.531263],[-54.657275,-20.531664],[-54.657527,-20.544368]]]}},{"type":"Feature","properties":{"id":"jd-aero-rancho","setor":"D"},"geometry":{"type":"Polygon","coordinates":[[[-54.643339,-20.519421],[-54.642466,-20.529563],[-54.631748,-20.532203],[-54.62622,-20.525019],[-54.640997,-20.51826],[-54.643339,-20.519421]]]}},{"type":"Feature","properties":{"id":"tancredo-neves","setor":"D"},"geometry":{"type":"Polygon","coordinates":[[[-54.649056,-20.517576],[-54.645264,-20.518653],[-54.643122,-20.510723],[-54.64322,-20.510719],[-54.649056,-20.517576]]]}},{"type":"Feature","properties":{"id":"nova-esperanca","setor":"D"},"geometry":{"type":"Polygon","coordinates":[[[-54.640655,-20.500502],[-54.636795,-20.50947],[-54.633182,-20.510314],[-54.625003,-20.504334],[-54.632038,-20.496055],[-54.640361,-20.499211],[-54.640655,-20.500502]]]}},{"type":"Feature","properties":{"id":"iracy-coelho","setor":"D"},"geometry":{"type":"Polygon","coordinates":[[[-54.653806,-20.519117],[-54.647216,-20.531263],[-54.647072,-20.53133],[-54.642466,-20.529563],[-54.643339,-20.519421],[-54.645264,-20.518653],[-54.649056,-20.517576],[-54.652779,-20.516989],[-54.653806,-20.519117]]]}},{"type":"Feature","properties":{"id":"paraty","setor":"D"},"geometry":{"type":"Polygon","coordinates":[[[-54.640997,-20.51826],[-54.62622,-20.525019],[-54.625855,-20.52474],[-54.633182,-20.510314],[-54.636795,-20.50947],[-54.637058,-20.509716],[-54.640997,-20.51826]]]}},{"type":"Feature","properties":{"id":"tiradentes","setor":"E"},"geometry":{"type":"Polygon","coordinates":[[[-54.584406,-20.467863],[-54.582313,-20.482406],[-54.570531,-20.488423],[-54.563655,-20.473588],[-54.56917,-20.459174],[-54.584406,-20.467863]]]}},{"type":"Feature","properties":{"id":"vilas-boas","setor":"E"},"geometry":{"type":"Polygon","coordinates":[[[-54.60449,-20.467141],[-54.59438,-20.493718],[-54.592866,-20.494523],[-54.582313,-20.482406],[-54.584406,-20.467863],[-54.60449,-20.467141]]]}},{"type":"Feature","properties":{"id":"piratininga","setor":"E"},"geometry":{"type":"Polygon","coordinates":[[[-54.632038,-20.496055],[-54.625003,-20.504334],[-54.615155,-20.505127],[-54.61265,-20.497281],[-54.617158,-20.487765],[-54.630803,-20.493229],[-54.632038,-20.496055]]]}},{"type":"Feature","properties":{"id":"jardim-paulista","setor":"E"},"geometry":{"type":"Polygon","coordinates":[[[-54.617158,-20.487765],[-54.61265,-20.497281],[-54.59438,-20.493718],[-54.60449,-20.467141],[-54.61657,-20.461368],[-54.617158,-20.487765]]]}},{"type":"Feature","properties":{"id":"marcos-roberto","setor":"E"},"geometry":{"type":"Polygon","coordinates":[[[-54.638678,-20.466304],[-54.63809,-20.479401],[-54.630803,-20.493229],[-54.617158,-20.487765],[-54.61657,-20.461368],[-54.620399,-20.456793],[-54.638678,-20.466304]]]}},{"type":"Feature","properties":{"id":"parque-dallas","setor":"E"},"geometry":{"type":"Polygon","coordinates":[[[-54.592866,-20.494523],[-54.586168,-20.505332],[-54.584039,-20.504455],[-54.570343,-20.489241],[-54.570531,-20.488423],[-54.582313,-20.482406],[-54.592866,-20.494523]]]}},{"type":"Feature","properties":{"id":"guanandy","setor":"F"},"geometry":{"type":"Polygon","coordinates":[[[-54.661663,-20.498379],[-54.660879,-20.504121],[-54.655397,-20.508019],[-54.653376,-20.507481],[-54.640655,-20.500502],[-54.640361,-20.499211],[-54.643807,-20.494294],[-54.653699,-20.492332],[-54.661663,-20.498379]]]}},{"type":"Feature","properties":{"id":"bom-jardim","setor":"F"},"geometry":{"type":"Polygon","coordinates":[[[-54.669694,-20.486098],[-54.665054,-20.495504],[-54.661663,-20.498379],[-54.653699,-20.492332],[-54.651647,-20.477122],[-54.669694,-20.486098]]]}},{"type":"Feature","properties":{"id":"caicara","setor":"F"},"geometry":{"type":"Polygon","coordinates":[[[-54.653699,-20.492332],[-54.643807,-20.494294],[-54.63809,-20.479401],[-54.638678,-20.466304],[-54.645663,-20.466847],[-54.651647,-20.477122],[-54.653699,-20.492332]]]}},{"type":"Feature","properties":{"id":"jacy","setor":"F"},"geometry":{"type":"Polygon","coordinates":[[[-54.643807,-20.494294],[-54.640361,-20.499211],[-54.632038,-20.496055],[-54.630803,-20.493229],[-54.63809,-20.479401],[-54.643807,-20.494294]]]}},{"type":"Feature","properties":{"id":"uniao","setor":"F"},"geometry":{"type":"Polygon","coordinates":[[[-54.682401,-20.475979],[-54.669694,-20.486098],[-54.651647,-20.477122],[-54.645663,-20.466847],[-54.649032,-20.465408],[-54.668518,-20.46428],[-54.682401,-20.475979]]]}},{"type":"Feature","properties":{"id":"tijuca-ii","setor":"F"},"geometry":{"type":"Polygon","coordinates":[[[-54.671184,-20.513029],[-54.660303,-20.524199],[-54.653806,-20.519117],[-54.652779,-20.516989],[-54.655397,-20.508019],[-54.660879,-20.504121],[-54.671184,-20.513029]]]}},{"type":"Feature","properties":{"id":"santa-emilia","setor":"F"},"geometry":{"type":"Polygon","coordinates":[[[-54.687655,-20.502406],[-54.672091,-20.513301],[-54.671184,-20.513029],[-54.660879,-20.504121],[-54.661663,-20.498379],[-54.665054,-20.495504],[-54.687655,-20.502406]]]}},{"type":"Feature","properties":{"id":"sao-conrado","setor":"F"},"geometry":{"type":"Polygon","coordinates":[[[-54.701157,-20.491209],[-54.687774,-20.502371],[-54.687655,-20.502406],[-54.665054,-20.495504],[-54.669694,-20.486098],[-54.682401,-20.475979],[-54.690409,-20.477012],[-54.701157,-20.491209]]]}},{"type":"Feature","properties":{"id":"rancho-alegre","setor":"F"},"geometry":{"type":"Polygon","coordinates":[[[-54.688241,-20.52135],[-54.673378,-20.515885],[-54.672091,-20.513301],[-54.687655,-20.502406],[-54.687774,-20.502371],[-54.688241,-20.52135]]]}},{"type":"Feature","properties":{"id":"sao-jorge-da-lagoa","setor":"F"},"geometry":{"type":"Polygon","coordinates":[[[-54.674399,-20.531659],[-54.67094,-20.532311],[-54.661381,-20.527886],[-54.660303,-20.524199],[-54.671184,-20.513029],[-54.672091,-20.513301],[-54.673378,-20.515885],[-54.674399,-20.531659]]]}},{"type":"Feature","properties":{"id":"portal-caioba","setor":"G"},"geometry":{"type":"Polygon","coordinates":[[[-54.695068,-20.534851],[-54.676438,-20.532551],[-54.674399,-20.531659],[-54.673378,-20.515885],[-54.688241,-20.52135],[-54.695068,-20.534851]]]}},{"type":"Feature","properties":{"id":"portal-do-caioba-ii","setor":"G"},"geometry":{"type":"Polygon","coordinates":[[[-54.733805,-20.518028],[-54.727861,-20.522166],[-54.707616,-20.533311],[-54.702564,-20.539158],[-54.695068,-20.534851],[-54.688241,-20.52135],[-54.687774,-20.502371],[-54.701157,-20.491209],[-54.719209,-20.497767],[-54.733805,-20.518028]]]}},{"type":"Feature","properties":{"id":"portal-das-laranjeiras","setor":"G"},"geometry":{"type":"Polygon","coordinates":[[[-54.702564,-20.539158],[-54.699833,-20.542319],[-54.694104,-20.545969],[-54.691999,-20.547876],[-54.67613,-20.554117],[-54.675206,-20.554734],[-54.672757,-20.550495],[-54.676438,-20.532551],[-54.695068,-20.534851],[-54.702564,-20.539158]]]}},{"type":"Feature","properties":{"id":"taruma","setor":"G"},"geometry":{"type":"Polygon","coordinates":[[[-54.676438,-20.532551],[-54.672757,-20.550495],[-54.66352,-20.543343],[-54.67094,-20.532311],[-54.674399,-20.531659],[-54.676438,-20.532551]]]}},{"type":"Feature","properties":{"id":"jardim-penfigo","setor":"G"},"geometry":{"type":"Polygon","coordinates":[[[-54.675206,-20.554734],[-54.672921,-20.55626],[-54.671045,-20.555089],[-54.669174,-20.55552],[-54.667196,-20.556862],[-54.666459,-20.55798],[-54.666515,-20.559293],[-54.667447,-20.560424],[-54.665316,-20.561995],[-54.657778,-20.544418],[-54.66352,-20.543343],[-54.672757,-20.550495],[-54.675206,-20.554734]]]}},{"type":"Feature","properties":{"id":"parque-lageado","setor":"G"},"geometry":{"type":"Polygon","coordinates":[[[-54.65418,-20.545281],[-54.652258,-20.550654],[-54.6434,-20.556184],[-54.638494,-20.544961],[-54.648251,-20.54206],[-54.65418,-20.545281]]]}},{"type":"Feature","properties":{"id":"aero-rancho-vii","setor":"G"},"geometry":{"type":"Polygon","coordinates":[[[-54.67094,-20.532311],[-54.66352,-20.543343],[-54.657778,-20.544418],[-54.657527,-20.544368],[-54.657275,-20.531664],[-54.661381,-20.527886],[-54.67094,-20.532311]]]}},{"type":"Feature","properties":{"id":"parque-do-sol","setor":"G"},"geometry":{"type":"Polygon","coordinates":[[[-54.658919,-20.566504],[-54.653192,-20.570047],[-54.640776,-20.574078],[-54.640668,-20.566624],[-54.6434,-20.556184],[-54.652258,-20.550654],[-54.658919,-20.566504]]]}},{"type":"Feature","properties":{"id":"colorado","setor":"G"},"geometry":{"type":"Polygon","coordinates":[[[-54.665316,-20.561995],[-54.660651,-20.565433],[-54.658919,-20.566504],[-54.652258,-20.550654],[-54.65418,-20.545281],[-54.657527,-20.544368],[-54.657778,-20.544418],[-54.665316,-20.561995]]]}},{"type":"Feature","properties":{"id":"margarida","setor":"H"},"geometry":{"type":"Polygon","coordinates":[[[-54.593813,-20.442885],[-54.587772,-20.442996],[-54.583059,-20.425166],[-54.583758,-20.424174],[-54.59288,-20.430566],[-54.593813,-20.442885]]]}},{"type":"Feature","properties":{"id":"santa-fe","setor":"H"},"geometry":{"type":"Polygon","coordinates":[[[-54.620399,-20.456793],[-54.61657,-20.461368],[-54.60449,-20.467141],[-54.584406,-20.467863],[-54.56917,-20.459174],[-54.56598,-20.451937],[-54.587772,-20.442996],[-54.593813,-20.442885],[-54.61022,-20.448495],[-54.620192,-20.455062],[-54.620399,-20.456793]]]}},{"type":"Feature","properties":{"id":"monte-castelo","setor":"H"},"geometry":{"type":"Polygon","coordinates":[[[-54.622274,-20.432292],[-54.621098,-20.453036],[-54.620192,-20.455062],[-54.61022,-20.448495],[-54.600057,-20.425233],[-54.600278,-20.421931],[-54.610008,-20.410749],[-54.622274,-20.432292]]]}},{"type":"Feature","properties":{"id":"mata-do-jacinto","setor":"H"},"geometry":{"type":"Polygon","coordinates":[[[-54.583866,-20.423718],[-54.583758,-20.424174],[-54.583059,-20.425166],[-54.568871,-20.43318],[-54.564899,-20.422386],[-54.565012,-20.421904],[-54.575251,-20.414847],[-54.583866,-20.423718]]]}},{"type":"Feature","properties":{"id":"montevideu","setor":"H"},"geometry":{"type":"Polygon","coordinates":[[[-54.565012,-20.421904],[-54.564899,-20.422386],[-54.55469,-20.423159],[-54.545032,-20.415954],[-54.55138,-20.401337],[-54.558051,-20.404318],[-54.565012,-20.421904]]]}},{"type":"Feature","properties":{"id":"nova-bahia","setor":"H"},"geometry":{"type":"Polygon","coordinates":[[[-54.575541,-20.41138],[-54.575251,-20.414847],[-54.565012,-20.421904],[-54.558051,-20.404318],[-54.559653,-20.404209],[-54.575541,-20.41138]]]}},{"type":"Feature","properties":{"id":"cruzeiro","setor":"H"},"geometry":{"type":"Polygon","coordinates":[[[-54.61022,-20.448495],[-54.593813,-20.442885],[-54.59288,-20.430566],[-54.600057,-20.425233],[-54.61022,-20.448495]]]}},{"type":"Feature","properties":{"id":"estrela-dalva-i","setor":"H"},"geometry":{"type":"Polygon","coordinates":[[[-54.568871,-20.43318],[-54.564513,-20.450728],[-54.559647,-20.450056],[-54.550163,-20.442057],[-54.55469,-20.423159],[-54.564899,-20.422386],[-54.568871,-20.43318]]]}},{"type":"Feature","properties":{"id":"taquaral-bosque","setor":"H"},"geometry":{"type":"Polygon","coordinates":[[[-54.55469,-20.423159],[-54.550163,-20.442057],[-54.506358,-20.420543],[-54.507901,-20.40768],[-54.518154,-20.406955],[-54.518719,-20.408923],[-54.520782,-20.412215],[-54.522358,-20.413629],[-54.523826,-20.416671],[-54.525179,-20.41788],[-54.527281,-20.418336],[-54.530472,-20.418387],[-54.533351,-20.419147],[-54.53676,-20.421004],[-54.539017,-20.421433],[-54.540329,-20.421266],[-54.542761,-20.420215],[-54.54361,-20.419229],[-54.545032,-20.415954],[-54.55469,-20.423159]]]}},{"type":"Feature","properties":{"id":"catarina-ii","setor":"H"},"geometry":{"type":"Polygon","coordinates":[[[-54.587772,-20.442996],[-54.56598,-20.451937],[-54.564513,-20.450728],[-54.568871,-20.43318],[-54.583059,-20.425166],[-54.587772,-20.442996]]]}},{"type":"Feature","properties":{"id":"jardim-das-nacoes","setor":"J"},"geometry":{"type":"Polygon","coordinates":[[[-54.633182,-20.510314],[-54.625855,-20.52474],[-54.621909,-20.523908],[-54.614914,-20.505831],[-54.615155,-20.505127],[-54.625003,-20.504334],[-54.633182,-20.510314]]]}},{"type":"Feature","properties":{"id":"pioneira","setor":"J"},"geometry":{"type":"Polygon","coordinates":[[[-54.621909,-20.523908],[-54.613913,-20.528351],[-54.604262,-20.52243],[-54.60353,-20.51268],[-54.614914,-20.505831],[-54.621909,-20.523908]]]}},{"type":"Feature","properties":{"id":"cohab","setor":"J"},"geometry":{"type":"Polygon","coordinates":[[[-54.631748,-20.532203],[-54.63161,-20.536454],[-54.621214,-20.542111],[-54.610102,-20.541944],[-54.60928,-20.541434],[-54.613913,-20.528351],[-54.621909,-20.523908],[-54.625855,-20.52474],[-54.62622,-20.525019],[-54.631748,-20.532203]]]}},{"type":"Feature","properties":{"id":"centro-oeste","setor":"J"},"geometry":{"type":"Polygon","coordinates":[[[-54.619912,-20.558369],[-54.617149,-20.576561],[-54.617137,-20.576549],[-54.614201,-20.574544],[-54.61306,-20.573005],[-54.609641,-20.56973],[-54.606389,-20.567972],[-54.604786,-20.566661],[-54.603391,-20.566262],[-54.601415,-20.567103],[-54.599168,-20.568881],[-54.597392,-20.561651],[-54.600159,-20.544035],[-54.60928,-20.541434],[-54.610102,-20.541944],[-54.619912,-20.558369]]]}},{"type":"Feature","properties":{"id":"macaubas","setor":"J"},"geometry":{"type":"Polygon","coordinates":[[[-54.626052,-20.552132],[-54.619912,-20.558369],[-54.610102,-20.541944],[-54.621214,-20.542111],[-54.626052,-20.552132]]]}},{"type":"Feature","properties":{"id":"uirapuru","setor":"J"},"geometry":{"type":"Polygon","coordinates":[[[-54.640776,-20.574078],[-54.635763,-20.575706],[-54.632871,-20.577015],[-54.62915,-20.582623],[-54.628409,-20.584875],[-54.623886,-20.581363],[-54.619894,-20.579374],[-54.617149,-20.576561],[-54.619912,-20.558369],[-54.626052,-20.552132],[-54.630606,-20.550324],[-54.640668,-20.566624],[-54.640776,-20.574078]]]}},{"type":"Feature","properties":{"id":"los-angeles","setor":"J"},"geometry":{"type":"Polygon","coordinates":[[[-54.635312,-20.543911],[-54.630606,-20.550324],[-54.626052,-20.552132],[-54.621214,-20.542111],[-54.63161,-20.536454],[-54.635312,-20.543911]]]}},{"type":"Feature","properties":{"id":"guaicurus","setor":"J"},"geometry":{"type":"Polygon","coordinates":[[[-54.648251,-20.54206],[-54.638494,-20.544961],[-54.635312,-20.543911],[-54.63161,-20.536454],[-54.631748,-20.532203],[-54.642466,-20.529563],[-54.647072,-20.53133],[-54.648251,-20.54206]]]}},{"type":"Feature","properties":{"id":"vespasiano-martins","setor":"J"},"geometry":{"type":"Polygon","coordinates":[[[-54.6434,-20.556184],[-54.640668,-20.566624],[-54.630606,-20.550324],[-54.635312,-20.543911],[-54.638494,-20.544961],[-54.6434,-20.556184]]]}},{"type":"Feature","properties":{"id":"matel","setor":"M"},"geometry":{"type":"Polygon","coordinates":[[[-54.596956,-20.380274],[-54.577842,-20.398957],[-54.573314,-20.397773],[-54.569716,-20.388282],[-54.585006,-20.378717],[-54.588066,-20.379943],[-54.589414,-20.379615],[-54.59185,-20.377581],[-54.596956,-20.380274]]]}},{"type":"Feature","properties":{"id":"jardim-columbia","setor":"M"},"geometry":{"type":"MultiPolygon","coordinates":[[[[-54.553675,-20.394706],[-54.553546,-20.394938],[-54.552755,-20.393992],[-54.54533,-20.389312],[-54.543475,-20.388497],[-54.541394,-20.386769],[-54.535624,-20.383029],[-54.536548,-20.380755],[-54.536912,-20.378796],[-54.538806,-20.375726],[-54.540561,-20.371576],[-54.541657,-20.370485],[-54.541942,-20.369228],[-54.552531,-20.370225],[-54.553675,-20.394706]]],[[[-54.518154,-20.406955],[-54.507901,-20.40768],[-54.508411,-20.40343],[-54.509709,-20.40389],[-54.516583,-20.404902],[-54.518036,-20.406543],[-54.518154,-20.406955]]]]}},{"type":"Feature","properties":{"id":"nova-lima-ii","setor":"M"},"geometry":{"type":"Polygon","coordinates":[[[-54.573314,-20.397773],[-54.559653,-20.404209],[-54.558051,-20.404318],[-54.55138,-20.401337],[-54.553765,-20.395844],[-54.553597,-20.394999],[-54.553546,-20.394938],[-54.553675,-20.394706],[-54.564974,-20.387201],[-54.569716,-20.388282],[-54.573314,-20.397773]]]}},{"type":"Feature","properties":{"id":"nova-lima-i","setor":"M"},"geometry":{"type":"Polygon","coordinates":[[[-54.564974,-20.387201],[-54.553675,-20.394706],[-54.552531,-20.370225],[-54.557972,-20.370738],[-54.558175,-20.370668],[-54.564296,-20.378309],[-54.564974,-20.387201]]]}},{"type":"Feature","properties":{"id":"vida-nova","setor":"M"},"geometry":{"type":"Polygon","coordinates":[[[-54.585006,-20.378717],[-54.569716,-20.388282],[-54.564974,-20.387201],[-54.564296,-20.378309],[-54.581866,-20.37746],[-54.585006,-20.378717]]]}},{"type":"Feature","properties":{"id":"jardim-anache","setor":"M"},"geometry":{"type":"Polygon","coordinates":[[[-54.581866,-20.37746],[-54.564296,-20.378309],[-54.558175,-20.370668],[-54.559191,-20.370315],[-54.560165,-20.369418],[-54.56375,-20.370209],[-54.567956,-20.368244],[-54.569694,-20.368068],[-54.571421,-20.36832],[-54.57302,-20.368982],[-54.574382,-20.370009],[-54.575414,-20.371332],[-54.576533,-20.374869],[-54.577648,-20.37577],[-54.581866,-20.37746]]]}},{"type":"Feature","properties":{"id":"maria-pedrossian","setor":"N"},"geometry":{"type":"Polygon","coordinates":[[[-54.56917,-20.459174],[-54.563655,-20.473588],[-54.546156,-20.484201],[-54.549397,-20.457497],[-54.559647,-20.450056],[-54.564513,-20.450728],[-54.56598,-20.451937],[-54.56917,-20.459174]]]}},{"type":"Feature","properties":{"id":"leon-denizart","setor":"N"},"geometry":{"type":"Polygon","coordinates":[[[-54.559647,-20.450056],[-54.549397,-20.457497],[-54.543779,-20.459511],[-54.52397,-20.452061],[-54.505232,-20.429934],[-54.506358,-20.420543],[-54.550163,-20.442057],[-54.559647,-20.450056]]]}},{"type":"Feature","properties":{"id":"rita-vieira","setor":"N"},"geometry":{"type":"Polygon","coordinates":[[[-54.584039,-20.504455],[-54.565337,-20.506142],[-54.56914,-20.490085],[-54.570343,-20.489241],[-54.584039,-20.504455]]]}},{"type":"Feature","properties":{"id":"nova-serrana","setor":"N"},"geometry":{"type":"Polygon","coordinates":[[[-54.531272,-20.475684],[-54.527977,-20.494769],[-54.516075,-20.492981],[-54.513993,-20.493576],[-54.509858,-20.496507],[-54.509468,-20.495903],[-54.514969,-20.485644],[-54.524455,-20.490915],[-54.525386,-20.491043],[-54.526702,-20.490595],[-54.527329,-20.489937],[-54.527655,-20.488661],[-54.527415,-20.487808],[-54.526214,-20.486219],[-54.522496,-20.476553],[-54.511684,-20.470559],[-54.511661,-20.468899],[-54.515993,-20.448178],[-54.515819,-20.446821],[-54.515238,-20.44608],[-54.513908,-20.44552],[-54.503497,-20.444401],[-54.505232,-20.429934],[-54.52397,-20.452061],[-54.531272,-20.475684]]]}},{"type":"Feature","properties":{"id":"jardim-panorama","setor":"N"},"geometry":{"type":"Polygon","coordinates":[[[-54.549397,-20.457497],[-54.546156,-20.484201],[-54.534807,-20.495795],[-54.527977,-20.494769],[-54.531272,-20.475684],[-54.543779,-20.459511],[-54.549397,-20.457497]]]}},{"type":"Feature","properties":{"id":"estrela-parque","setor":"N"},"geometry":{"type":"Polygon","coordinates":[[[-54.570531,-20.488423],[-54.570343,-20.489241],[-54.56914,-20.490085],[-54.546598,-20.495849],[-54.546598,-20.49584],[-54.546217,-20.495074],[-54.545562,-20.494494],[-54.544274,-20.494141],[-54.535363,-20.495878],[-54.534807,-20.495795],[-54.546156,-20.484201],[-54.563655,-20.473588],[-54.570531,-20.488423]]]}},{"type":"Feature","properties":{"id":"cristo-redentor","setor":"N"},"geometry":{"type":"Polygon","coordinates":[[[-54.56914,-20.490085],[-54.565337,-20.506142],[-54.553803,-20.512318],[-54.55194,-20.510781],[-54.55162,-20.509676],[-54.549616,-20.506756],[-54.548225,-20.503747],[-54.547461,-20.501575],[-54.546621,-20.497435],[-54.546598,-20.495849],[-54.56914,-20.490085]]]}},{"type":"Feature","properties":{"id":"jardim-noroeste","setor":"N"},"geometry":{"type":"Polygon","coordinates":[[[-54.543779,-20.459511],[-54.531272,-20.475684],[-54.52397,-20.452061],[-54.543779,-20.459511]]]}}]}